H1 CPF 01  gfz 2021 02 22 13  5532 tandemx   
H2 1003001  6202 36605    2021 02 22 12 59 42 2021 02 27 00 00 42   120 1 1  0 0 0
H9
10 0 59267  63342.000000  0   -2661496.198  -1120497.622   6243204.511
10 0 59267  63462.000000  0   -3482146.613  -1126100.106   5825395.980
10 0 59267  63582.000000  0   -4241790.271  -1098208.050   5305128.756
10 0 59267  63702.000000  0   -4926560.518  -1038490.093   4691518.215
10 0 59267  63822.000000  0   -5523927.407   -949402.860   3995330.761
10 0 59267  63942.000000  0   -6022935.293   -834123.771   3228797.544
10 0 59267  64062.000000  0   -6414412.415   -696466.817   2405401.458
10 0 59267  64182.000000  0   -6691150.527   -540783.069   1539639.585
10 0 59267  64302.000000  0   -6848047.009   -371848.271    646762.201
10 0 59267  64422.000000  0   -6882204.136   -194740.592   -257503.741
10 0 59267  64542.000000  0   -6792984.396    -14710.991  -1157240.585
10 0 59267  64662.000000  0   -6582019.194    162950.165  -2036629.210
10 0 59267  64782.000000  0   -6253173.231    333046.145  -2880233.295
10 0 59267  64902.000000  0   -5812465.562    490604.045  -3673277.077
10 0 59267  65022.000000  0   -5267945.964    630998.954  -4401906.754
10 0 59267  65142.000000  0   -4629534.692    750068.269  -5053430.349
10 0 59267  65262.000000  0   -3908828.760    844213.812  -5616532.605
10 0 59267  65382.000000  0   -3118881.151    910489.559  -6081462.236
10 0 59267  65502.000000  0   -2273957.338    946672.862  -6440189.060
10 0 59267  65622.000000  0   -1389275.537    951319.360  -6686531.217
10 0 59267  65742.000000  0    -480733.061    923800.492  -6816250.657
10 0 59267  65862.000000  0     435373.825    864322.351  -6827116.601
10 0 59267  65982.000000  0    1342633.685    773926.292  -6718941.057
10 0 59267  66102.000000  0    2224808.113    654471.020  -6493583.602
10 0 59267  66222.000000  0    3066116.413    508596.616  -6154922.477
10 0 59267  66342.000000  0    3851513.886    339671.147  -5708794.383
10 0 59267  66462.000000  0    4566958.511    151719.269  -5162903.531
10 0 59267  66582.000000  0    5199664.362    -50664.389  -4526700.856
10 0 59267  66702.000000  0    5738337.280   -262416.873  -3811231.161
10 0 59267  66822.000000  0    6173385.497   -478121.562  -3028950.394
10 0 59267  66942.000000  0    6497102.330   -692133.822  -2193516.072
10 0 59267  67062.000000  0    6703816.076   -898714.762  -1319551.579
10 0 59267  67182.000000  0    6790001.323  -1092169.444   -422388.975
10 0 59267  67302.000000  0    6754349.031  -1266986.722    482204.022
10 0 59267  67422.000000  0    6597793.063  -1417977.069   1378308.517
10 0 59267  67542.000000  0    6323491.157  -1540405.208   2250142.991
10 0 59267  67662.000000  0    5936761.089  -1630113.054   3082351.167
10 0 59267  67782.000000  0    5444972.301  -1683629.755   3860280.095
10 0 59267  67902.000000  0    4857397.671  -1698267.517   4570243.222
10 0 59267  68022.000000  0    4185029.442  -1672199.107   5199763.090
10 0 59267  68142.000000  0    3440364.918  -1604515.712   5737790.496
10 0 59267  68262.000000  0    2637164.775  -1495265.057   6174895.859
10 0 59267  68382.000000  0    1790191.827  -1345468.540   6503428.583
10 0 59267  68502.000000  0     914935.104  -1157117.589   6717645.651
10 0 59267  68622.000000  0      27323.276   -933148.134   6813806.364
10 0 59267  68742.000000  0    -856565.795   -677394.394   6790232.367
10 0 59267  68862.000000  0   -1720794.953   -394523.312   6647334.462
10 0 59267  68982.000000  0   -2549853.701    -89949.691   6387605.862
10 0 59267  69102.000000  0   -3328935.904    230266.456   6015582.337
10 0 59267  69222.000000  0   -4044206.187    559538.591   5537768.778
10 0 59267  69342.000000  0   -4683050.392    890886.438   4962531.407
10 0 59267  69462.000000  0   -5234304.880   1217080.980   4299957.212
10 0 59267  69582.000000  0   -5688460.162   1530798.896   3561680.855
10 0 59267  69702.000000  0   -6037833.416   1824782.845   2760682.598
10 0 59267  69822.000000  0   -6276707.419   2092004.184   1911060.146
10 0 59267  69942.000000  0   -6401432.416   2325824.396   1027777.552
10 0 59267  70062.000000  0   -6410486.749   2520151.464    126394.639
10 0 59267  70182.000000  0   -6304493.790   2669585.995   -777216.142
10 0 59267  70302.000000  0   -6086195.753   2769553.482  -1667156.416
10 0 59267  70422.000000  0   -5760385.018   2816420.739  -2527791.937
10 0 59267  70542.000000  0   -5333793.637   2807592.211  -3344034.396
10 0 59267  70662.000000  0   -4814945.219   2741583.368  -4101609.402
10 0 59267  70782.000000  0   -4213974.449   2618070.932  -4787305.687
10 0 59267  70902.000000  0   -3542418.717   2437918.527  -5389200.652
10 0 59267  71022.000000  0   -2812988.661   2203178.554  -5896858.538
10 0 59267  71142.000000  0   -2039323.193   1917070.608  -6301501.586
10 0 59267  71262.000000  0   -1235731.027   1583936.087  -6596150.721
10 0 59267  71382.000000  0    -416927.458   1209170.980  -6775733.580
10 0 59267  71502.000000  0     402230.390    799138.277  -6837162.055
10 0 59267  71622.000000  0    1207005.659    361062.107  -6779380.357
10 0 59267  71742.000000  0    1983041.889    -97097.003  -6603382.462
10 0 59267  71862.000000  0    2716613.031   -566783.141  -6312195.775
10 0 59267  71982.000000  0    3394862.296  -1039000.220  -5910835.251
10 0 59267  72102.000000  0    4006025.334  -1504479.155  -5406225.033
10 0 59267  72222.000000  0    4539636.096  -1953855.754  -4807091.281
10 0 59267  72342.000000  0    4986711.546  -2377856.970  -4123822.370
10 0 59267  72462.000000  0    5339910.305  -2767490.459  -3368299.069
10 0 59267  72582.000000  0    5593663.107  -3114234.075  -2553696.075
10 0 59267  72702.000000  0    5744270.696  -3410221.047  -1694256.231
10 0 59267  72822.000000  0    5789965.786  -3648416.212   -805042.448
10 0 59267  72942.000000  0    5730937.840  -3822779.531     98329.139
10 0 59267  73062.000000  0    5569318.493  -3928411.591    999969.266
10 0 59267  73182.000000  0    5309127.893  -3961678.536   1884003.559
10 0 59267  73302.000000  0    4956181.399  -3920309.953   2734862.085
10 0 59267  73422.000000  0    4517960.295  -3803468.583   3537560.984
10 0 59267  73542.000000  0    4003451.469  -3611790.869   4277972.258
10 0 59267  73662.000000  0    3422958.808  -3347398.061   4943076.958
10 0 59267  73782.000000  0    2787889.655  -3013875.684   5521195.055
10 0 59267  73902.000000  0    2110525.221  -2616223.166   6002188.332
10 0 59267  74022.000000  0    1403777.658  -2160775.635   6377633.776
10 0 59267  74142.000000  0     680940.368  -1655099.864   6640964.980
10 0 59267  74262.000000  0     -44563.867  -1107865.800   6787581.040
10 0 59267  74382.000000  0    -759432.188   -528696.057   6814921.710
10 0 59267  74502.000000  0   -1450724.503     72003.670   6722508.742
10 0 59267  74622.000000  0   -2106096.818    683231.174   6511953.842
10 0 59267  74742.000000  0   -2714021.230   1293588.505   6186932.480
10 0 59267  74862.000000  0   -3263989.506   1891493.568   5753123.945
10 0 59267  74982.000000  0   -3746697.529   2465399.737   5218118.672
10 0 59267  75102.000000  0   -4154207.564   3004020.529   4591291.644
10 0 59267  75222.000000  0   -4480084.468   3496553.917   3883643.090
10 0 59267  75342.000000  0   -4719503.569   3932901.738   3107608.627
10 0 59267  75462.000000  0   -4869326.375   4303880.085   2276841.488
10 0 59267  75582.000000  0   -4928143.093   4601416.541   1405970.608
10 0 59267  75702.000000  0   -4896279.630   4818727.166    510337.085
10 0 59267  75822.000000  0   -4775769.732   4950467.981   -394283.146
10 0 59267  75942.000000  0   -4570293.433   4992859.865  -1291966.042
10 0 59267  76062.000000  0   -4285079.347   4943781.513  -2166930.451
10 0 59267  76182.000000  0   -3926776.909   4802827.669  -3003822.879
10 0 59267  76302.000000  0   -3503301.714   4571331.632  -3787992.798
10 0 59267  76422.000000  0   -3023657.401   4252352.374  -4505749.654
10 0 59267  76542.000000  0   -2497740.843   3850628.244  -5144597.687
10 0 59267  76662.000000  0   -1936136.137   3372500.352  -5693445.961
10 0 59267  76782.000000  0   -1349900.471   2825805.923  -6142792.637
10 0 59267  76902.000000  0    -750346.175   2219743.311  -6484878.863
10 0 59267  77022.000000  0    -148824.450   1564713.740  -6713810.575
10 0 59267  77142.000000  0     443485.113    872142.492  -6825649.586
10 0 59267  77262.000000  0    1015776.987    154282.597  -6818474.779
10 0 59267  77382.000000  0    1557812.966   -575997.997  -6692411.641
10 0 59267  77502.000000  0    2060100.439  -1305441.671  -6449628.716
10 0 59267  77622.000000  0    2514055.080  -2020635.323  -6094304.598
10 0 59267  77742.000000  0    2912146.170  -2708250.886  -5632564.120
10 0 59267  77862.000000  0    3248023.077  -3355291.429  -5072385.124
10 0 59267  77982.000000  0    3516619.975  -3949338.057  -4423470.274
10 0 59267  78102.000000  0    3714234.500  -4478789.162  -3697088.653
10 0 59267  78222.000000  0    3838581.966  -4933090.794  -2905890.580
10 0 59267  78342.000000  0    3888823.584  -5302954.287  -2063694.404
10 0 59267  78462.000000  0    3865564.702  -5580553.878  -1185246.771
10 0 59267  78582.000000  0    3770824.232  -5759698.137   -285962.924
10 0 59267  78702.000000  0    3607974.525  -5835971.622    618349.367
10 0 59267  78822.000000  0    3381653.195  -5806842.057   1511774.709
10 0 59267  78942.000000  0    3097649.620  -5671730.076   2378580.179
10 0 59267  79062.000000  0    2762766.726  -5432037.530   3203501.168
10 0 59267  79182.000000  0    2384663.651  -5091137.068   3972016.467
10 0 59267  79302.000000  0    1971684.130  -4654322.385   4670608.610
10 0 59267  79422.000000  0    1532673.536  -4128719.838   5287003.840
10 0 59267  79542.000000  0    1076790.259  -3523164.648   5810387.536
10 0 59267  79662.000000  0     613313.589  -2848043.424   6231590.810
10 0 59267  79782.000000  0     151454.730  -2115109.011   6543244.284
99
